start=new Date('2023-06-22T00:00:00.000Z').valueOf();
sats=[{"CLASSIFICATION_TYPE":"U","MEAN_ANOMALY":"160.4955","ELEMENT_SET_NO":"999","EPOCH":"2023-06-21T14:00:01.000224","BSTAR":"0.00005274800000","EPHEMERIS_TYPE":"0","MEAN_ELEMENT_THEORY":"SGP4","INCLINATION":"43.0039","REV_AT_EPOCH":"144","LAUNCH_DATE":null,"TLE_LINE2":"2 56893  43.0039  88.6642 0001886 264.5485 160.4955 15.71340783  1441","MEAN_MOTION_DOT":"0.00006466","MEAN_MOTION_DDOT":"0.0000000000000","OBJECT_NAME":"STARLINK-6216","OBJECT_ID":"2023-083T","OBJECT_TYPE":"PAYLOAD","SEMIMAJOR_AXIS":"6733.201","TIME_SYSTEM":"UTC","COUNTRY_CODE":null,"PERIAPSIS":"353.796","CENTER_NAME":"EARTH","DECAY_DATE":null,"MEAN_MOTION":"15.71340783","GP_ID":"234406901","FILE":"3938927","ECCENTRICITY":"0.00018860","APOAPSIS":"356.336","NORAD_CAT_ID":"56893","PERIOD":"91.641","RCS_SIZE":null,"ARG_OF_PERICENTER":"264.5485","RA_OF_ASC_NODE":"88.6642","REF_FRAME":"TEME","SITE":null,"TLE_LINE1":"1 56893U 23083T   23172.58334491  .00006466  00000-0  52748-4 0  9991"},{"RCS_SIZE":null,"ARG_OF_PERICENTER":"262.5912","PERIOD":"91.640","NORAD_CAT_ID":"56894","SITE":null,"REF_FRAME":"TEME","TLE_LINE1":"1 56894U 23083U   23172.58334491 -.00020055  00000-0 -14983-3 0  9992","RA_OF_ASC_NODE":"88.6591","APOAPSIS":"356.188","CENTER_NAME":"EARTH","DECAY_DATE":null,"PERIAPSIS":"353.845","COUNTRY_CODE":null,"GP_ID":"234406400","FILE":"3938927","ECCENTRICITY":"0.00017400","MEAN_MOTION":"15.71358160","TIME_SYSTEM":"UTC","OBJECT_NAME":"STARLINK-6144","OBJECT_ID":"2023-083U","SEMIMAJOR_AXIS":"6733.151","OBJECT_TYPE":"PAYLOAD","TLE_LINE2":"2 56894  43.0044  88.6591 0001740 262.5912 164.8247 15.71358160  1443","LAUNCH_DATE":null,"MEAN_MOTION_DDOT":"0.0000000000000","MEAN_MOTION_DOT":"-0.00020055","EPHEMERIS_TYPE":"0","BSTAR":"-0.00014983000000","INCLINATION":"43.0044","REV_AT_EPOCH":"144","MEAN_ELEMENT_THEORY":"SGP4","EPOCH":"2023-06-21T14:00:01.000224","CLASSIFICATION_TYPE":"U","MEAN_ANOMALY":"164.8247","ELEMENT_SET_NO":"999"},{"RCS_SIZE":null,"ARG_OF_PERICENTER":"253.9600","PERIOD":"91.641","NORAD_CAT_ID":"56895","SITE":null,"REF_FRAME":"TEME","TLE_LINE1":"1 56895U 23083V   23172.58334491 -.00009923  00000-0 -72322-4 0  9996","RA_OF_ASC_NODE":"88.6601","APOAPSIS":"356.177","CENTER_NAME":"EARTH","DECAY_DATE":null,"PERIAPSIS":"353.892","COUNTRY_CODE":null,"GP_ID":"234438977","ECCENTRICITY":"0.00016970","FILE":"3939133","MEAN_MOTION":"15.71351832","TIME_SYSTEM":"UTC","OBJECT_NAME":"STARLINK-6208","OBJECT_ID":"2023-083V","SEMIMAJOR_AXIS":"6733.170","OBJECT_TYPE":"PAYLOAD","TLE_LINE2":"2 56895  43.0043  88.6601 0001697 253.9600 172.8636 15.71351832  1309","LAUNCH_DATE":null,"MEAN_MOTION_DOT":"-0.00009923","MEAN_MOTION_DDOT":"0.0000000000000","EPHEMERIS_TYPE":"0","BSTAR":"-0.00007232200000","INCLINATION":"43.0043","REV_AT_EPOCH":"130","MEAN_ELEMENT_THEORY":"SGP4","EPOCH":"2023-06-21T14:00:01.000224","MEAN_ANOMALY":"172.8636","CLASSIFICATION_TYPE":"U","ELEMENT_SET_NO":"999"},{"RA_OF_ASC_NODE":"88.6547","TLE_LINE1":"1 56896U 23083W   23172.58334491 -.00081542  00000-0 -62331-3 0  9992","REF_FRAME":"TEME","SITE":null,"NORAD_CAT_ID":"56896","RCS_SIZE":null,"PERIOD":"91.638","ARG_OF_PERICENTER":"262.3475","APOAPSIS":"356.140","MEAN_MOTION":"15.71398232","ECCENTRICITY":"0.00018380","FILE":"3938912","GP_ID":"234406408","COUNTRY_CODE":null,"PERIAPSIS":"353.664","DECAY_DATE":null,"CENTER_NAME":"EARTH","TIME_SYSTEM":"UTC","OBJECT_TYPE":"PAYLOAD","SEMIMAJOR_AXIS":"6733.037","OBJECT_ID":"2023-083W","OBJECT_NAME":"STARLINK-6202","MEAN_MOTION_DDOT":"0.0000000000000","MEAN_MOTION_DOT":"-0.00081542","LAUNCH_DATE":null,"TLE_LINE2":"2 56896  43.0051  88.6547 0001838 262.3475 166.8375 15.71398232  1442","MEAN_ELEMENT_THEORY":"SGP4","REV_AT_EPOCH":"144","INCLINATION":"43.0051","BSTAR":"-0.00062331000000","EPHEMERIS_TYPE":"0","ELEMENT_SET_NO":"999","MEAN_ANOMALY":"166.8375","CLASSIFICATION_TYPE":"U","EPOCH":"2023-06-21T14:00:01.000224"},{"APOAPSIS":"356.160","RA_OF_ASC_NODE":"88.6557","TLE_LINE1":"1 56897U 23083X   23172.58334491 -.00058248  00000-0 -44331-3 0  9990","REF_FRAME":"TEME","SITE":null,"NORAD_CAT_ID":"56897","RCS_SIZE":null,"PERIOD":"91.639","ARG_OF_PERICENTER":"259.4042","TIME_SYSTEM":"UTC","MEAN_MOTION":"15.71383029","ECCENTRICITY":"0.00018040","FILE":"3938912","GP_ID":"234406908","COUNTRY_CODE":null,"PERIAPSIS":"353.731","DECAY_DATE":null,"CENTER_NAME":"EARTH","MEAN_MOTION_DOT":"-0.00058248","MEAN_MOTION_DDOT":"0.0000000000000","LAUNCH_DATE":null,"TLE_LINE2":"2 56897  43.0047  88.6557 0001804 259.4042 169.1928 15.71383029  1447","OBJECT_TYPE":"PAYLOAD","SEMIMAJOR_AXIS":"6733.080","OBJECT_ID":"2023-083X","OBJECT_NAME":"STARLINK-6200","ELEMENT_SET_NO":"999","MEAN_ANOMALY":"169.1928","CLASSIFICATION_TYPE":"U","EPOCH":"2023-06-21T14:00:01.000224","MEAN_ELEMENT_THEORY":"SGP4","REV_AT_EPOCH":"144","INCLINATION":"43.0047","BSTAR":"-0.00044331000000","EPHEMERIS_TYPE":"0"},{"APOAPSIS":"356.173","TLE_LINE1":"1 56898U 23083Y   23172.83334491 -.00014667  00000-0 -10855-3 0  9990","REF_FRAME":"TEME","SITE":"AFETR","RA_OF_ASC_NODE":"87.1454","PERIOD":"91.640","RCS_SIZE":"LARGE","ARG_OF_PERICENTER":"263.2022","NORAD_CAT_ID":"56898","TIME_SYSTEM":"UTC","ECCENTRICITY":"0.00017460","FILE":"3939208","GP_ID":"234440478","MEAN_MOTION":"15.71364746","DECAY_DATE":null,"CENTER_NAME":"EARTH","COUNTRY_CODE":"US","PERIAPSIS":"353.822","MEAN_MOTION_DOT":"-0.00014667","MEAN_MOTION_DDOT":"0.0000000000000","TLE_LINE2":"2 56898  43.0046  87.1454 0001746 263.2022 143.1255 15.71364746  1487","LAUNCH_DATE":"2023-06-12","SEMIMAJOR_AXIS":"6733.133","OBJECT_TYPE":"PAYLOAD","OBJECT_ID":"2023-083Y","OBJECT_NAME":"STARLINK-6205","EPOCH":"2023-06-21T20:00:01.000224","ELEMENT_SET_NO":"999","MEAN_ANOMALY":"143.1255","CLASSIFICATION_TYPE":"U","INCLINATION":"43.0046","REV_AT_EPOCH":"148","MEAN_ELEMENT_THEORY":"SGP4","BSTAR":"-0.00010855000000","EPHEMERIS_TYPE":"0"},{"SITE":"AFETR","REF_FRAME":"TEME","TLE_LINE1":"1 56899U 23083Z   23172.83334491 -.00012732  00000-0 -93753-4 0  9991","RA_OF_ASC_NODE":"87.1462","PERIOD":"91.640","RCS_SIZE":"LARGE","ARG_OF_PERICENTER":"263.0834","NORAD_CAT_ID":"56899","APOAPSIS":"356.205","GP_ID":"234440968","FILE":"3939208","ECCENTRICITY":"0.00017860","MEAN_MOTION":"15.71362969","CENTER_NAME":"EARTH","DECAY_DATE":null,"PERIAPSIS":"353.800","COUNTRY_CODE":"US","TIME_SYSTEM":"UTC","SEMIMAJOR_AXIS":"6733.138","OBJECT_TYPE":"PAYLOAD","OBJECT_NAME":"STARLINK-6203","OBJECT_ID":"2023-083Z","MEAN_MOTION_DDOT":"0.0000000000000","MEAN_MOTION_DOT":"-0.00012732","TLE_LINE2":"2 56899  43.0040  87.1462 0001786 263.0834 142.6498 15.71362969  1482","LAUNCH_DATE":"2023-06-12","INCLINATION":"43.0040","REV_AT_EPOCH":"148","MEAN_ELEMENT_THEORY":"SGP4","BSTAR":"-0.00009375300000","EPHEMERIS_TYPE":"0","EPOCH":"2023-06-21T20:00:01.000224","MEAN_ANOMALY":"142.6498","CLASSIFICATION_TYPE":"U","ELEMENT_SET_NO":"999"},{"APOAPSIS":"356.138","RA_OF_ASC_NODE":"87.1395","TLE_LINE1":"1 56900U 23083AA  23172.83334491 -.00003286  00000-0 -21618-4 0  9999","REF_FRAME":"TEME","SITE":"AFETR","NORAD_CAT_ID":"56900","RCS_SIZE":"LARGE","ARG_OF_PERICENTER":"259.7603","PERIOD":"91.640","TIME_SYSTEM":"UTC","MEAN_MOTION":"15.71358832","FILE":"3939208","ECCENTRICITY":"0.00016690","GP_ID":"234440966","PERIAPSIS":"353.891","COUNTRY_CODE":"US","DECAY_DATE":null,"CENTER_NAME":"EARTH","MEAN_MOTION_DDOT":"0.0000000000000","MEAN_MOTION_DOT":"-0.00003286","LAUNCH_DATE":"2023-06-12","TLE_LINE2":"2 56900  43.0043  87.1395 0001669 259.7603 148.9508 15.71358832  1484","OBJECT_TYPE":"PAYLOAD","SEMIMAJOR_AXIS":"6733.150","OBJECT_ID":"2023-083AA","OBJECT_NAME":"STARLINK-6207","ELEMENT_SET_NO":"999","CLASSIFICATION_TYPE":"U","MEAN_ANOMALY":"148.9508","EPOCH":"2023-06-21T20:00:01.000224","MEAN_ELEMENT_THEORY":"SGP4","REV_AT_EPOCH":"148","INCLINATION":"43.0043","BSTAR":"-0.00002161800000","EPHEMERIS_TYPE":"0"},{"EPOCH":"2023-06-21T20:00:01.000224","ELEMENT_SET_NO":"999","MEAN_ANOMALY":"141.5157","CLASSIFICATION_TYPE":"U","INCLINATION":"43.0041","REV_AT_EPOCH":"148","MEAN_ELEMENT_THEORY":"SGP4","BSTAR":"-0.00013021000000","EPHEMERIS_TYPE":"0","MEAN_MOTION_DDOT":"0.0000000000000","MEAN_MOTION_DOT":"-0.00017499","TLE_LINE2":"2 56901  43.0041  87.1432 0001713 265.4057 141.5157 15.71366933  1482","LAUNCH_DATE":"2023-06-12","SEMIMAJOR_AXIS":"6733.126","OBJECT_TYPE":"PAYLOAD","OBJECT_ID":"2023-083AB","OBJECT_NAME":"STARLINK-6185","TIME_SYSTEM":"UTC","ECCENTRICITY":"0.00017130","FILE":"3939230","GP_ID":"234440982","MEAN_MOTION":"15.71366933","DECAY_DATE":null,"CENTER_NAME":"EARTH","PERIAPSIS":"353.838","COUNTRY_CODE":"US","APOAPSIS":"356.145","TLE_LINE1":"1 56901U 23083AB  23172.83334491 -.00017499  00000-0 -13021-3 0  9999","SITE":"AFETR","REF_FRAME":"TEME","RA_OF_ASC_NODE":"87.1432","RCS_SIZE":"LARGE","ARG_OF_PERICENTER":"265.4057","PERIOD":"91.640","NORAD_CAT_ID":"56901"},{"SEMIMAJOR_AXIS":"6733.148","OBJECT_TYPE":"PAYLOAD","OBJECT_ID":"2023-083AC","OBJECT_NAME":"STARLINK-6195","MEAN_MOTION_DDOT":"0.0000000000000","MEAN_MOTION_DOT":"-0.00004013","TLE_LINE2":"2 56902  43.0050  87.1386 0001683 266.1506 143.1555 15.71359520  1488","LAUNCH_DATE":"2023-06-12","REV_AT_EPOCH":"148","INCLINATION":"43.0050","MEAN_ELEMENT_THEORY":"SGP4","BSTAR":"-0.00002716300000","EPHEMERIS_TYPE":"0","EPOCH":"2023-06-21T20:00:01.000224","ELEMENT_SET_NO":"999","CLASSIFICATION_TYPE":"U","MEAN_ANOMALY":"143.1555","TLE_LINE1":"1 56902U 23083AC  23172.83334491 -.00004013  00000-0 -27163-4 0  9991","REF_FRAME":"TEME","SITE":"AFETR","RA_OF_ASC_NODE":"87.1386","RCS_SIZE":null,"PERIOD":"91.640","ARG_OF_PERICENTER":"266.1506","NORAD_CAT_ID":"56902","APOAPSIS":"356.146","ECCENTRICITY":"0.00016830","FILE":"3939209","GP_ID":"234440491","MEAN_MOTION":"15.71359520","DECAY_DATE":null,"CENTER_NAME":"EARTH","COUNTRY_CODE":"US","PERIAPSIS":"353.879","TIME_SYSTEM":"UTC"}];
